STARLINK-5830           
1 57065U 23088T   26177.83294906  .00000512  00000+0  28119-4 0  9990
2 57065  43.0020 217.7210 0001495 300.9666  59.1039 15.27582659166003
STARLINK-5827           
1 57066U 23088U   26176.51416403  .00000372  00000+0  23048-4 0  9993
2 57066  43.0045 221.6463 0002035 281.0599  79.0023 15.27578227165841
STARLINK-5824           
1 57067U 23088V   26177.50781139  .00000122  00000+0  13976-4 0  9997
2 57067  43.0019 216.1919 0001839 268.7951  91.2690 15.27574800166977
STARLINK-5844           
1 57068U 23088W   26177.84067910 -.00002779  00000+0 -91513-4 0  9994
2 57068  43.0040 217.8070 0001668 254.9784 105.0883 15.27571352166987
STARLINK-5821           
1 57069U 23088X   26177.54557885  .00000043  00000+0  11085-4 0  9993
2 57069  43.0007 201.7759 0001145 301.4273  58.6466 15.27576583166978
STARLINK-5828           
1 57070U 23088Y   26176.53907876  .00000568  00000+0  30170-4 0  9990
2 57070  43.0007 207.1298 0001527 307.2691  52.8021 15.27582915166991
STARLINK-5834           
1 57071U 23088Z   26177.33914002  .00000174  00000+0  15869-4 0  9990
2 57071  43.0022 202.8150 0001846 277.9263  82.1379 15.27578222166943
STARLINK-5843           
1 57072U 23088AA  26177.78913517 -.00000025  00000+0  86491-5 0  9996
2 57072  43.0043 200.1674 0002577 272.5102  87.5455 15.27574544166200
STARLINK-5838           
1 57073U 23088AB  26177.78528532 -.00000215  00000+0  17069-5 0  9992
2 57073  43.0051 200.1378 0001940 275.2832  84.7798 15.27572545166202
STARLINK-5773           
1 57074U 23088AC  26177.83681861 -.00000128  00000+0  48816-5 0  9991
2 57074  43.0023 217.7779 0001453 273.5430  86.5255 15.27577384166984
STARLINK-5542           
1 57075U 23088AD  26177.74673198 -.00000052  00000+0  76499-5 0  9990
2 57075  43.0003 199.8501 0001195 269.9959  90.0755 15.27576065167187
STARLINK-6155           
1 57076U 23088AE  26177.79299376 -.00000430  00000+0 -60988-5 0  9995
2 57076  43.0035 200.1996 0001850 269.5533  90.5107 15.27575462167017
STARLINK-6194           
1 57077U 23088AF  26177.34556324 -.00000301  00000+0 -14077-5 0  9991
2 57077  43.0001 202.8569 0001478 269.6691  90.3991 15.27580097167275
STARLINK-6245           
1 57079U 23088AH  26177.75701417 -.00000279  00000+0 -62087-6 0  9992
2 57079  43.0003 199.9294 0001120 275.3160  84.7564 15.27575731167181
STARLINK-6243           
1 57080U 23088AJ  26177.53786727  .00000210  00000+0  17160-4 0  9990
2 57080  43.0018 201.7220 0001544 271.4606  88.6068 15.27577875166971
STARLINK-6184           
1 57081U 23088AK  26177.76472368 -.00000706  00000+0 -16156-4 0  9995
2 57081  43.0014 199.9845 0001036 272.8743  87.1990 15.27571629167185
STARLINK-6248           
1 57082U 23088AL  26177.75059338 -.00000878  00000+0 -22397-4 0  9997
2 57082  43.0000 199.8797 0001106 268.7852  91.2873 15.27569435167187
STARLINK-6253           
1 57083U 23088AM  26177.51730816  .00000025  00000+0  10443-4 0  9990
2 57083  43.0030 201.5599 0001538 286.8695  73.1988 15.27576829167144
STARLINK-6240           
1 57084U 23088AN  26177.76087356 -.00001335  00000+0 -39017-4 0  9997
2 57084  43.0006 199.9586 0001172 264.5646  95.5072 15.27570943167184
STARLINK-6232           
1 57085U 23088AP  26177.74544551  .00000238  00000+0  18188-4 0  9996
2 57085  43.0014 199.8407 0001468 274.3771  85.6913 15.27579170167186
STARLINK-6247           
1 57086U 23088AQ  26177.76857892 -.00000498  00000+0 -85911-5 0  9993
2 57086  43.0019 200.0144 0000875 290.4357  69.6401 15.27572254167185
STARLINK-6251           
1 57087U 23088AR  26177.74930082  .00000080  00000+0  12446-4 0  9992
2 57087  42.9996 199.8668 0001255 271.8457  88.2251 15.27575802167183
STARLINK-6257           
1 57088U 23088AS  26177.51088406 -.00000129  00000+0  48499-5 0  9995
2 57088  43.0031 201.5172 0001041 302.0843  57.9907 15.27574788167145
STARLINK-6259           
1 57089U 23088AT  26177.76729342 -.00000504  00000+0 -87848-5 0  9993
2 57089  43.0020 200.0008 0001213 269.7179  90.3533 15.27573313167181
STARLINK-6254           
1 57090U 23088AU  26177.75316117 -.00000826  00000+0 -20485-4 0  9996
2 57090  42.9977 199.8922 0001329 267.1140  92.9559 15.27572192167180
STARLINK-6262           
1 57091U 23088AV  26177.75958278 -.00001120  00000+0 -31157-4 0  9993
2 57091  42.9971 199.9400 0001479 273.3206  86.7477 15.27585798167181
STARLINK-6225           
1 57092U 23088AW  26177.75572545 -.00000137  00000+0  45406-5 0  9992
2 57092  42.9982 199.9135 0001354 272.8105  87.2592 15.27575942167187
STARLINK-6229           
1 57093U 23088AX  26177.77114921 -.00000562  00000+0 -10919-4 0  9998
2 57093  43.0020 200.0273 0000821 298.0659  62.0110 15.27572685167180
STARLINK-6235           
1 57094U 23088AY  26177.77499909 -.00001345  00000+0 -39350-4 0  9991
2 57094  43.0063 200.0517 0001845 279.3402  80.7242 15.27568005167188
STARLINK-6132           
1 57101U 23090A   26177.96343480 -.00000330  00000+0 -24713-5 0  9997
2 57101  43.0061  24.5053 0001804 263.2398  96.8248 15.27579114167042
