OBJECT_NAME,OBJECT_ID,EPOCH,MEAN_MOTION,ECCENTRICITY,INCLINATION,RA_OF_ASC_NODE,ARG_OF_PERICENTER,MEAN_ANOMALY,EPHEMERIS_TYPE,CLASSIFICATION_TYPE,NORAD_CAT_ID,ELEMENT_SET_NO,REV_AT_EPOCH,BSTAR,MEAN_MOTION_DOT,MEAN_MOTION_DDOT
STARLINK-5830,2023-088T,2026-06-26T19:59:26.798784,15.27582659,.00014953,43.0020,217.7210,300.9666,59.1039,0,U,57065,999,16600,.28118549E-4,.512E-5,0
STARLINK-5827,2023-088U,2026-06-25T12:20:23.772192,15.27578227,.0002035,43.0045,221.6463,281.0599,79.0023,0,U,57066,999,16584,.23048E-4,.372E-5,0
STARLINK-5824,2023-088V,2026-06-26T12:11:14.904096,15.27574800,.0001839,43.0019,216.1919,268.7951,91.2690,0,U,57067,999,16697,.13976E-4,.122E-5,0
STARLINK-5844,2023-088W,2026-06-26T20:10:34.674240,15.27571352,.0001668,43.0040,217.8070,254.9784,105.0883,0,U,57068,999,16698,-.9151346E-4,-.2779E-4,0
STARLINK-5821,2023-088X,2026-06-26T13:05:38.012640,15.27576583,.0001145,43.0007,201.7759,301.4273,58.6466,0,U,57069,999,16697,.11085E-4,.43E-6,0
STARLINK-5828,2023-088Y,2026-06-25T12:56:16.404864,15.27582915,.00015277,43.0007,207.1298,307.2691,52.8021,0,U,57070,999,16699,.30169944E-4,.568E-5,0
STARLINK-5834,2023-088Z,2026-06-26T08:08:21.697728,15.27578222,.0001846,43.0022,202.8150,277.9263,82.1379,0,U,57071,999,16694,.15869E-4,.174E-5,0
STARLINK-5843,2023-088AA,2026-06-26T18:56:21.278688,15.27574544,.0002577,43.0043,200.1674,272.5102,87.5455,0,U,57072,999,16620,.8649063E-5,-.25E-6,0
STARLINK-5838,2023-088AB,2026-06-26T18:50:48.651648,15.27572545,.00019406,43.0051,200.1378,275.2832,84.7798,0,U,57073,999,16620,.1706924E-5,-.215E-5,0
STARLINK-5773,2023-088AC,2026-06-26T20:05:01.127904,15.27577384,.00014534,43.0023,217.7779,273.5430,86.5255,0,U,57074,999,16698,.4881633E-5,-.128E-5,0
STARLINK-5542,2023-088AD,2026-06-26T17:55:17.643072,15.27576065,.00011958,43.0003,199.8501,269.9959,90.0755,0,U,57075,999,16718,.7649875E-5,-.52E-6,0
STARLINK-6155,2023-088AE,2026-06-26T19:01:54.660864,15.27575462,.00018503,43.0035,200.1996,269.5533,90.5107,0,U,57076,999,16701,-.6098756E-5,-.43E-5,0
STARLINK-6194,2023-088AF,2026-06-26T08:17:36.663936,15.27580097,.0001478,43.0001,202.8569,269.6691,90.3991,0,U,57077,999,16727,-.14077E-5,-.301E-5,0
STARLINK-6245,2023-088AH,2026-06-26T18:10:06.024288,15.27575731,.00011205,43.0003,199.9294,275.3160,84.7564,0,U,57079,999,16718,-.620866E-6,-.279E-5,0
STARLINK-6243,2023-088AJ,2026-06-26T12:54:31.732128,15.27577875,.0001544,43.0018,201.7220,271.4606,88.6068,0,U,57080,999,16697,.1716E-4,.21E-5,0
STARLINK-6184,2023-088AK,2026-06-26T18:21:12.125952,15.27571629,.00010361,43.0014,199.9845,272.8743,87.1990,0,U,57081,999,16718,-.16156259E-4,-.706E-5,0
STARLINK-6248,2023-088AL,2026-06-26T18:00:51.268032,15.27569435,.00011069,43.0000,199.8797,268.7852,91.2873,0,U,57082,999,16718,-.22397142E-4,-.878E-5,0
STARLINK-6253,2023-088AM,2026-06-26T12:24:55.425024,15.27576829,.0001538,43.0030,201.5599,286.8695,73.1988,0,U,57083,999,16714,.10443E-4,.25E-6,0
STARLINK-6240,2023-088AN,2026-06-26T18:15:39.475584,15.27570943,.0001172,43.0006,199.9586,264.5646,95.5072,0,U,57084,999,16718,-.39017126E-4,-.1335E-4,0
STARLINK-6232,2023-088AP,2026-06-26T17:53:26.492064,15.27579170,.00014683,43.0014,199.8407,274.3771,85.6913,0,U,57085,999,16718,.1818779E-4,.238E-5,0
STARLINK-6247,2023-088AQ,2026-06-26T18:26:45.218688,15.27572254,.00008758,43.0019,200.0144,290.4357,69.6401,0,U,57086,999,16718,-.8591101E-5,-.498E-5,0
STARLINK-6251,2023-088AR,2026-06-26T17:58:59.590848,15.27575802,.00012558,42.9996,199.8668,271.8457,88.2251,0,U,57087,999,16718,.12446206E-4,.8E-6,0
STARLINK-6257,2023-088AS,2026-06-26T12:15:40.382784,15.27574788,.0001041,43.0031,201.5172,302.0843,57.9907,0,U,57088,999,16714,.48499E-5,-.129E-5,0
STARLINK-6259,2023-088AT,2026-06-26T18:24:54.151488,15.27573313,.00012138,43.0020,200.0008,269.7179,90.3533,0,U,57089,999,16718,-.8784844E-5,-.504E-5,0
STARLINK-6254,2023-088AU,2026-06-26T18:04:33.125088,15.27572192,.00013295,42.9977,199.8922,267.1140,92.9559,0,U,57090,999,16718,-.20485359E-4,-.826E-5,0
STARLINK-6262,2023-088AV,2026-06-26T18:13:47.952192,15.27585798,.00014794,42.9971,199.9400,273.3206,86.7477,0,U,57091,999,16718,-.31157346E-4,-.112E-4,0
STARLINK-6225,2023-088AW,2026-06-26T18:08:14.678880,15.27575942,.0001354,42.9982,199.9135,272.8105,87.2592,0,U,57092,999,16718,.454058E-5,-.137E-5,0
STARLINK-6229,2023-088AX,2026-06-26T18:30:27.291744,15.27572685,.00008215,43.0020,200.0273,298.0659,62.0110,0,U,57093,999,16718,-.10918856E-4,-.562E-5,0
STARLINK-6235,2023-088AY,2026-06-26T18:35:59.921376,15.27568005,.00018456,43.0063,200.0517,279.3402,80.7242,0,U,57094,999,16718,-.39350497E-4,-.1345E-4,0
STARLINK-6132,2023-090A,2026-06-26T23:07:20.766720,15.27579114,.0001804,43.0061,24.5053,263.2398,96.8248,0,U,57101,999,16704,-.24713E-5,-.33E-5,0
